OBJECT_NAME,OBJECT_ID,EPOCH,MEAN_MOTION,ECCENTRICITY,INCLINATION,RA_OF_ASC_NODE,ARG_OF_PERICENTER,MEAN_ANOMALY,EPHEMERIS_TYPE,CLASSIFICATION_TYPE,NORAD_CAT_ID,ELEMENT_SET_NO,REV_AT_EPOCH,BSTAR,MEAN_MOTION_DOT,MEAN_MOTION_DDOT
BEIDOU-2 IGSO-1 (C06),2010-036A,2026-05-21T00:16:02.141760,1.00280030,.00589328,54.2967,163.2045,224.9850,321.8842,0,U,36828,999,5782,0,-.79E-6,0
BEIDOU-2 G4 (C04),2010-057A,2026-05-21T16:39:38.598336,1.00271589,.0005715,3.5831,69.0939,208.0539,12.0819,0,U,37210,999,5702,0,-.12E-5,0
BEIDOU-2 IGSO-2 (C07),2010-068A,2026-05-20T19:04:38.235936,1.00291600,.00544867,47.6009,272.1707,211.9297,147.0769,0,U,37256,999,5651,0,-.222E-5,0
BEIDOU-2 IGSO-3 (C08),2011-013A,2026-05-14T18:01:06.818304,1.00276202,.00339423,62.3634,40.4703,185.9417,24.6219,0,U,37384,999,5532,0,-.206E-5,0
BEIDOU-2 IGSO-4 (C09),2011-038A,2026-05-21T12:55:16.648032,1.00289938,.0158442,54.5931,165.9096,231.3633,127.8009,0,U,37763,999,5438,0,.15E-6,0
BEIDOU-2 IGSO-5 (C10),2011-073A,2026-05-20T20:22:21.592992,1.00254801,.01121323,47.7298,271.8817,220.6478,143.6793,0,U,37948,999,5286,0,-.191E-5,0
BEIDOU-2 G5 (C05),2012-008A,2026-05-21T17:53:25.224576,1.00273512,.0010865,3.5098,69.8436,270.3399,226.2435,0,U,38091,999,5210,0,.5E-6,0
BEIDOU-2 M3 (C11),2012-018A,2026-05-21T08:10:44.047776,1.86229586,.001976,55.7819,305.7795,275.7935,83.9605,0,U,38250,999,9544,0,-.61E-6,0
BEIDOU-2 M4 (C12),2012-018B,2026-05-20T04:46:44.019840,1.86229401,.00110325,55.6827,305.0343,279.8130,80.0393,0,U,38251,999,9542,0,-.57E-6,0
BEIDOU-2 M6 (C14),2012-050B,2026-05-20T23:35:20.620320,1.86230801,.0014256,56.5216,63.7937,352.7329,7.2430,0,U,38775,999,9280,0,-.43E-6,0
BEIDOU-2 G6 (C02),2012-059A,2026-05-21T18:00:39.529728,1.00269857,.0010208,4.3567,73.7945,320.8277,198.9737,0,U,38953,999,4964,0,-.182E-5,0
BEIDOU-3S IGSO-1S (C31),2015-019A,2026-05-21T09:30:06.380352,1.00255175,.0038054,49.2470,295.7810,189.9536,349.3717,0,U,40549,999,4080,0,-.181E-5,0
BEIDOU-3S M2S (C58),2015-037A,2026-05-21T11:25:13.606752,1.86231763,.0007586,54.8949,302.9651,264.3915,95.5002,0,U,40748,999,7362,0,-.62E-6,0
BEIDOU-3S M1S (C57),2015-037B,2026-05-20T01:49:13.724256,1.86254754,.0004,54.8932,303.0013,57.4653,302.5491,0,U,40749,999,7360,0,-.57E-6,0
BEIDOU-3S IGSO-2S (C56),2015-053A,2026-05-20T19:12:21.803904,1.00265102,.0064744,49.2661,259.1074,191.1209,172.6290,0,U,40938,999,3908,0,-.157E-5,0
BEIDOU-2 IGSO-6 (C13),2016-021A,2026-05-21T16:20:46.231296,1.00263911,.0057381,60.1904,38.3025,232.4043,308.0564,0,U,41434,999,3721,0,-.17E-5,0
BEIDOU-2 G7 (C03),2016-037A,2026-05-21T18:07:53.834880,1.00264668,.0007307,1.6566,69.0771,359.7944,192.9334,0,U,41586,999,662,0,-.36E-5,0
BEIDOU-3 M1 (C19),2017-069A,2026-05-21T06:50:42.824832,1.86230911,.0011501,56.6703,63.9705,322.1206,37.7955,0,U,43001,999,5810,0,-.44E-6,0
BEIDOU-3 M2 (C20),2017-069B,2026-05-21T05:22:24.652416,1.86230582,.0009779,56.6691,64.0088,345.1879,14.7802,0,U,43002,999,5809,0,-.43E-6,0
BEIDOU-3 M7 (C27),2018-003A,2026-05-21T12:03:36.884736,1.86227881,.0005173,54.3531,303.2452,87.0529,272.9850,0,U,43107,999,5685,0,-.64E-6,0
BEIDOU-3 M8 (C28),2018-003B,2026-05-20T21:51:28.187424,1.86230787,.0002129,54.3461,303.2478,274.7526,85.2006,0,U,43108,999,5685,0,-.61E-6,0
BEIDOU-3 M4 (C22),2018-018A,2026-05-21T08:29:02.418144,1.86230846,.0007926,56.6293,64.0330,10.0744,349.9382,0,U,43207,999,5624,0,-.44E-6,0
BEIDOU-3 M3 (C21),2018-018B,2026-05-21T10:04:44.719392,1.86230725,.0009535,56.6288,64.0348,335.6705,24.2814,0,U,43208,999,5624,0,-.44E-6,0
BEIDOU-3 M9 (C29),2018-029A,2026-05-20T13:31:45.514272,1.86227997,.00009513,54.2193,300.9137,119.7583,240.2270,0,U,43245,999,5538,0,-.58E-6,0
BEIDOU-3 M10 (C30),2018-029B,2026-05-21T13:43:53.067072,1.86228975,.0004413,54.2173,300.9057,38.8847,321.1246,0,U,43246,999,5538,0,-.63E-6,0
BEIDOU-2 IGSO-7 (C16),2018-057A,2026-05-21T11:18:19.649664,1.00259052,.01043,55.1884,163.2907,238.0173,119.1151,0,U,43539,999,2885,0,-.43E-6,0
BEIDOU-3 M5 (C23),2018-062A,2026-05-21T06:13:28.721280,1.86228723,.0005253,54.0833,183.2195,288.6563,71.3552,0,U,43581,999,5313,0,.34E-6,0
BEIDOU-3 M6 (C24),2018-062B,2026-05-21T02:56:41.430336,1.86227822,.0004711,54.0833,183.2136,14.8012,345.2818,0,U,43582,999,5313,0,.34E-6,0
BEIDOU-3 M12 (C26),2018-067A,2026-05-17T07:15:29.306592,1.86227757,.00077432,54.1786,182.0879,31.4775,328.6606,0,U,43602,999,5254,0,.84E-6,0
BEIDOU-3 M11 (C25),2018-067B,2026-05-21T04:42:21.331872,1.86227230,.00044,54.1757,181.9195,15.6107,344.4705,0,U,43603,999,5264,0,.36E-6,0
BEIDOU-3 M13 (C32),2018-072A,2026-05-21T03:37:33.506400,1.86231115,.000818,56.6021,63.5521,323.8656,36.0765,0,U,43622,999,5215,0,-.44E-6,0
